<?xml version="1.0" encoding="UTF-8"?>
<ndm xmlns:xsi="http://www.w3.org/2001/XMLSchema-instance" xsi:noNamespaceSchemaLocation="https://sanaregistry.org/r/ndmxml_unqualified/ndmxml-2.0.0-master-2.0.xsd">
<omm id="CCSDS_OMM_VERS" version="2.0">
<header><CREATION_DATE/><ORIGINATOR/></header><body><segment><metadata><OBJECT_NAME>ORBCOMM-X [-]</OBJECT_NAME><OBJECT_ID>1991-050C</OBJECT_ID><CENTER_NAME>EARTH</CENTER_NAME><REF_FRAME>TEME</REF_FRAME><TIME_SYSTEM>UTC</TIME_SYSTEM><MEAN_ELEMENT_THEORY>SGP4</MEAN_ELEMENT_THEORY></metadata><data><meanElements><EPOCH>2024-01-25T03:22:48.196704</EPOCH><MEAN_MOTION>14.42340807</MEAN_MOTION><ECCENTRICITY>.0002583</ECCENTRICITY><INCLINATION>98.4090</INCLINATION><RA_OF_ASC_NODE>94.5913</RA_OF_ASC_NODE><ARG_OF_PERICENTER>289.9334</ARG_OF_PERICENTER><MEAN_ANOMALY>70.1577</MEAN_ANOMALY></meanElements><tleParameters><EPHEMERIS_TYPE>0</EPHEMERIS_TYPE><CLASSIFICATION_TYPE>U</CLASSIFICATION_TYPE><NORAD_CAT_ID>21576</NORAD_CAT_ID><ELEMENT_SET_NO>999</ELEMENT_SET_NO><REV_AT_EPOCH>70871</REV_AT_EPOCH><BSTAR>.21531E-3</BSTAR><MEAN_MOTION_DOT>.668E-5</MEAN_MOTION_DOT><MEAN_MOTION_DDOT>0</MEAN_MOTION_DDOT></tleParameters></data></segment></body></omm>
<omm id="CCSDS_OMM_VERS" version="2.0">
<header><CREATION_DATE/><ORIGINATOR/></header><body><segment><metadata><OBJECT_NAME>ORBCOMM FM01 [-]</OBJECT_NAME><OBJECT_ID>1995-017A</OBJECT_ID><CENTER_NAME>EARTH</CENTER_NAME><REF_FRAME>TEME</REF_FRAME><TIME_SYSTEM>UTC</TIME_SYSTEM><MEAN_ELEMENT_THEORY>SGP4</MEAN_ELEMENT_THEORY></metadata><data><meanElements><EPOCH>2024-01-25T01:09:42.954912</EPOCH><MEAN_MOTION>14.78143301</MEAN_MOTION><ECCENTRICITY>.0005042</ECCENTRICITY><INCLINATION>69.9667</INCLINATION><RA_OF_ASC_NODE>251.2613</RA_OF_ASC_NODE><ARG_OF_PERICENTER>336.2022</ARG_OF_PERICENTER><MEAN_ANOMALY>23.8893</MEAN_ANOMALY></meanElements><tleParameters><EPHEMERIS_TYPE>0</EPHEMERIS_TYPE><CLASSIFICATION_TYPE>U</CLASSIFICATION_TYPE><NORAD_CAT_ID>23545</NORAD_CAT_ID><ELEMENT_SET_NO>999</ELEMENT_SET_NO><REV_AT_EPOCH>53698</REV_AT_EPOCH><BSTAR>.80298E-3</BSTAR><MEAN_MOTION_DOT>.575E-4</MEAN_MOTION_DOT><MEAN_MOTION_DDOT>0</MEAN_MOTION_DDOT></tleParameters></data></segment></body></omm>
<omm id="CCSDS_OMM_VERS" version="2.0">
<header><CREATION_DATE/><ORIGINATOR/></header><body><segment><metadata><OBJECT_NAME>ORBCOMM FM02 [-]</OBJECT_NAME><OBJECT_ID>1995-017B</OBJECT_ID><CENTER_NAME>EARTH</CENTER_NAME><REF_FRAME>TEME</REF_FRAME><TIME_SYSTEM>UTC</TIME_SYSTEM><MEAN_ELEMENT_THEORY>SGP4</MEAN_ELEMENT_THEORY></metadata><data><meanElements><EPOCH>2024-01-25T02:46:40.538208</EPOCH><MEAN_MOTION>14.77804833</MEAN_MOTION><ECCENTRICITY>.0007215</ECCENTRICITY><INCLINATION>69.9698</INCLINATION><RA_OF_ASC_NODE>270.3304</RA_OF_ASC_NODE><ARG_OF_PERICENTER>338.5424</ARG_OF_PERICENTER><MEAN_ANOMALY>21.5421</MEAN_ANOMALY></meanElements><tleParameters><EPHEMERIS_TYPE>0</EPHEMERIS_TYPE><CLASSIFICATION_TYPE>U</CLASSIFICATION_TYPE><NORAD_CAT_ID>23546</NORAD_CAT_ID><ELEMENT_SET_NO>999</ELEMENT_SET_NO><REV_AT_EPOCH>53664</REV_AT_EPOCH><BSTAR>.1052E-2</BSTAR><MEAN_MOTION_DOT>.7501E-4</MEAN_MOTION_DOT><MEAN_MOTION_DDOT>0</MEAN_MOTION_DDOT></tleParameters></data></segment></body></omm>
<omm id="CCSDS_OMM_VERS" version="2.0">
<header><CREATION_DATE/><ORIGINATOR/></header><body><segment><metadata><OBJECT_NAME>ORBCOMM FM08 [-]</OBJECT_NAME><OBJECT_ID>1997-084A</OBJECT_ID><CENTER_NAME>EARTH</CENTER_NAME><REF_FRAME>TEME</REF_FRAME><TIME_SYSTEM>UTC</TIME_SYSTEM><MEAN_ELEMENT_THEORY>SGP4</MEAN_ELEMENT_THEORY></metadata><data><meanElements><EPOCH>2024-01-25T13:11:16.212480</EPOCH><MEAN_MOTION>14.41900159</MEAN_MOTION><ECCENTRICITY>.0006569</ECCENTRICITY><INCLINATION>45.0145</INCLINATION><RA_OF_ASC_NODE>281.7883</RA_OF_ASC_NODE><ARG_OF_PERICENTER>203.0014</ARG_OF_PERICENTER><MEAN_ANOMALY>157.0543</MEAN_ANOMALY></meanElements><tleParameters><EPHEMERIS_TYPE>0</EPHEMERIS_TYPE><CLASSIFICATION_TYPE>U</CLASSIFICATION_TYPE><NORAD_CAT_ID>25112</NORAD_CAT_ID><ELEMENT_SET_NO>999</ELEMENT_SET_NO><REV_AT_EPOCH>36786</REV_AT_EPOCH><BSTAR>.8288E-3</BSTAR><MEAN_MOTION_DOT>.2597E-4</MEAN_MOTION_DOT><MEAN_MOTION_DDOT>0</MEAN_MOTION_DDOT></tleParameters></data></segment></body></omm>
<omm id="CCSDS_OMM_VERS" version="2.0">
<header><CREATION_DATE/><ORIGINATOR/></header><body><segment><metadata><OBJECT_NAME>ORBCOMM FM10 [-]</OBJECT_NAME><OBJECT_ID>1997-084B</OBJECT_ID><CENTER_NAME>EARTH</CENTER_NAME><REF_FRAME>TEME</REF_FRAME><TIME_SYSTEM>UTC</TIME_SYSTEM><MEAN_ELEMENT_THEORY>SGP4</MEAN_ELEMENT_THEORY></metadata><data><meanElements><EPOCH>2024-01-25T13:12:58.000320</EPOCH><MEAN_MOTION>14.41828338</MEAN_MOTION><ECCENTRICITY>.0004243</ECCENTRICITY><INCLINATION>45.0158</INCLINATION><RA_OF_ASC_NODE>283.5624</RA_OF_ASC_NODE><ARG_OF_PERICENTER>169.6432</ARG_OF_PERICENTER><MEAN_ANOMALY>190.4506</MEAN_ANOMALY></meanElements><tleParameters><EPHEMERIS_TYPE>0</EPHEMERIS_TYPE><CLASSIFICATION_TYPE>U</CLASSIFICATION_TYPE><NORAD_CAT_ID>25113</NORAD_CAT_ID><ELEMENT_SET_NO>999</ELEMENT_SET_NO><REV_AT_EPOCH>54301</REV_AT_EPOCH><BSTAR>.81197E-3</BSTAR><MEAN_MOTION_DOT>.2537E-4</MEAN_MOTION_DOT><MEAN_MOTION_DDOT>0</MEAN_MOTION_DDOT></tleParameters></data></segment></body></omm>
<omm id="CCSDS_OMM_VERS" version="2.0">
<header><CREATION_DATE/><ORIGINATOR/></header><body><segment><metadata><OBJECT_NAME>ORBCOMM FM11 [+]</OBJECT_NAME><OBJECT_ID>1997-084C</OBJECT_ID><CENTER_NAME>EARTH</CENTER_NAME><REF_FRAME>TEME</REF_FRAME><TIME_SYSTEM>UTC</TIME_SYSTEM><MEAN_ELEMENT_THEORY>SGP4</MEAN_ELEMENT_THEORY></metadata><data><meanElements><EPOCH>2024-01-24T19:09:57.608352</EPOCH><MEAN_MOTION>14.41709351</MEAN_MOTION><ECCENTRICITY>.0004908</ECCENTRICITY><INCLINATION>45.0143</INCLINATION><RA_OF_ASC_NODE>287.1360</RA_OF_ASC_NODE><ARG_OF_PERICENTER>166.0893</ARG_OF_PERICENTER><MEAN_ANOMALY>194.0093</MEAN_ANOMALY></meanElements><tleParameters><EPHEMERIS_TYPE>0</EPHEMERIS_TYPE><CLASSIFICATION_TYPE>U</CLASSIFICATION_TYPE><NORAD_CAT_ID>25114</NORAD_CAT_ID><ELEMENT_SET_NO>999</ELEMENT_SET_NO><REV_AT_EPOCH>36787</REV_AT_EPOCH><BSTAR>.91853E-3</BSTAR><MEAN_MOTION_DOT>.2882E-4</MEAN_MOTION_DOT><MEAN_MOTION_DDOT>0</MEAN_MOTION_DDOT></tleParameters></data></segment></body></omm>
<omm id="CCSDS_OMM_VERS" version="2.0">
<header><CREATION_DATE/><ORIGINATOR/></header><body><segment><metadata><OBJECT_NAME>ORBCOMM FM12 [-]</OBJECT_NAME><OBJECT_ID>1997-084D</OBJECT_ID><CENTER_NAME>EARTH</CENTER_NAME><REF_FRAME>TEME</REF_FRAME><TIME_SYSTEM>UTC</TIME_SYSTEM><MEAN_ELEMENT_THEORY>SGP4</MEAN_ELEMENT_THEORY></metadata><data><meanElements><EPOCH>2024-01-25T14:06:16.023744</EPOCH><MEAN_MOTION>14.41692684</MEAN_MOTION><ECCENTRICITY>.0003946</ECCENTRICITY><INCLINATION>45.0151</INCLINATION><RA_OF_ASC_NODE>283.0373</RA_OF_ASC_NODE><ARG_OF_PERICENTER>171.5058</ARG_OF_PERICENTER><MEAN_ANOMALY>188.5859</MEAN_ANOMALY></meanElements><tleParameters><EPHEMERIS_TYPE>0</EPHEMERIS_TYPE><CLASSIFICATION_TYPE>U</CLASSIFICATION_TYPE><NORAD_CAT_ID>25115</NORAD_CAT_ID><ELEMENT_SET_NO>999</ELEMENT_SET_NO><REV_AT_EPOCH>36778</REV_AT_EPOCH><BSTAR>.82367E-3</BSTAR><MEAN_MOTION_DOT>.2568E-4</MEAN_MOTION_DOT><MEAN_MOTION_DDOT>0</MEAN_MOTION_DDOT></tleParameters></data></segment></body></omm>
<omm id="CCSDS_OMM_VERS" version="2.0">
<header><CREATION_DATE/><ORIGINATOR/></header><body><segment><metadata><OBJECT_NAME>ORBCOMM FM09 [-]</OBJECT_NAME><OBJECT_ID>1997-084E</OBJECT_ID><CENTER_NAME>EARTH</CENTER_NAME><REF_FRAME>TEME</REF_FRAME><TIME_SYSTEM>UTC</TIME_SYSTEM><MEAN_ELEMENT_THEORY>SGP4</MEAN_ELEMENT_THEORY></metadata><data><meanElements><EPOCH>2024-01-25T14:19:01.508736</EPOCH><MEAN_MOTION>14.41660052</MEAN_MOTION><ECCENTRICITY>.0005143</ECCENTRICITY><INCLINATION>45.0156</INCLINATION><RA_OF_ASC_NODE>283.6516</RA_OF_ASC_NODE><ARG_OF_PERICENTER>154.8896</ARG_OF_PERICENTER><MEAN_ANOMALY>205.2205</MEAN_ANOMALY></meanElements><tleParameters><EPHEMERIS_TYPE>0</EPHEMERIS_TYPE><CLASSIFICATION_TYPE>U</CLASSIFICATION_TYPE><NORAD_CAT_ID>25116</NORAD_CAT_ID><ELEMENT_SET_NO>999</ELEMENT_SET_NO><REV_AT_EPOCH>36799</REV_AT_EPOCH><BSTAR>.78542E-3</BSTAR><MEAN_MOTION_DOT>.244E-4</MEAN_MOTION_DOT><MEAN_MOTION_DDOT>0</MEAN_MOTION_DDOT></tleParameters></data></segment></body></omm>

</ndm>
