ORBCOMM-X [-]           
1 21576U 91050C   24025.14083561  .00000668  00000+0  21531-3 0  9991
2 21576  98.4090  94.5913 0002583 289.9334  70.1577 14.42340807708713
ORBCOMM FM01 [-]        
1 23545U 95017A   24025.04841383  .00005750  00000+0  80298-3 0  9991
2 23545  69.9667 251.2613 0005042 336.2022  23.8893 14.78143301536989
ORBCOMM FM02 [-]        
1 23546U 95017B   24025.11574697  .00007501  00000+0  10520-2 0  9997
2 23546  69.9698 270.3304 0007215 338.5424  21.5421 14.77804833536646
ORBCOMM FM08 [-]        
1 25112U 97084A   24025.54949320  .00002597  00000+0  82880-3 0  9999
2 25112  45.0145 281.7883 0006569 203.0014 157.0543 14.41900159367864
ORBCOMM FM10 [-]        
1 25113U 97084B   24025.55067130  .00002537  00000+0  81197-3 0  9995
2 25113  45.0158 283.5624 0004243 169.6432 190.4506 14.41828338543011
ORBCOMM FM11 [+]        
1 25114U 97084C   24024.79858343  .00002882  00000+0  91853-3 0  9998
2 25114  45.0143 287.1360 0004908 166.0893 194.0093 14.41709351367875
ORBCOMM FM12 [-]        
1 25115U 97084D   24025.58768546  .00002568  00000+0  82367-3 0  9993
2 25115  45.0151 283.0373 0003946 171.5058 188.5859 14.41692684367787
ORBCOMM FM09 [-]        
1 25116U 97084E   24025.59654524  .00002440  00000+0  78542-3 0  9994
2 25116  45.0156 283.6516 0005143 154.8896 205.2205 14.41660052367992
